#dP2024 10 12 18  0  0.00000000      96 __u+U IGS20 EXT  IAC
## 2335 583200.00000000   900.00000000 60595 0.7500000000000
+   53   G02G03G04G05G06G07G08G09G10G11G12G13G14G15G16G17G18
+        G19G20G21G22G23G24G25G26G27G28G29G30G31G32R01R02R03
+        R04R05R07R08R09R11R12R14R15R16R17R18R19R20R21R22R24
+        R25R26  0  0  0  0  0  0  0  0  0  0  0  0  0  0  0
+          0  0  0  0  0  0  0  0  0  0  0  0  0  0  0  0  0
++         7  7  6  7  7  5  8  7  7  7  7  7  8  8  6  7 10
++         7  8  7  7  6  6  8  7  8  6  8  6  7  6 10  8  9
++         7  8  9  7  8  9  8  8  7  7  9  8  8  8  6  9  8
++         8  8  0  0  0  0  0  0  0  0  0  0  0  0  0  0  0
++         0  0  0  0  0  0  0  0  0  0  0  0  0  0  0  0  0
%c M  cc GPS ccc cccc cccc cccc cccc ccccc ccccc ccccc ccccc
%c cc cc ccc ccc cccc cccc cccc cccc ccccc ccccc ccccc ccccc
%f  0.0000000  0.000000000  0.00000000000  0.000000000000000
%f  0.0000000  0.000000000  0.00000000000  0.000000000000000
%i    0    0    0    0      0      0      0      0         0
%i    0    0    0    0      0      0      0      0         0
/* IAC                                ULTRA-RAPID PREDICTION
/* S/V CLOCKS ARE ALIGNED TO GNSS TIME                      
/* G:C1WC2W R:C1PC2P E:C1XC5X C:C2IC6I J:C1CC2S             
/* PCV:IGS20_2317 OL/AL:FES2004  NONE     YN ORB:CoN CLK:CoN
*  2024 10 12 21  0  0.00000000
PG02 -18767.398457 -13404.336510 -12998.267385   -338.455866
PG03 -12460.657952 -20134.422418  11975.101768    568.206127
PG04 -12072.807422  -9446.100526  21714.805545    460.550035
PG05   4974.460959  25865.911372   2948.822291   -189.587111
PG06 -17025.583441   7511.715214  19063.834928    -33.986615
PG07 -25841.933045  -6672.820221  -1980.396320    -28.278127
PG08  -2022.152789 -17717.895728 -19660.141152    382.344423
PG09 -19180.028306    673.032356  18292.700324    395.969719
PG10  11635.587495 -11202.035415 -20792.524998   -156.336074
PG11  -1905.321221  15261.583267  21692.088952   -743.390145
PG12   9566.400795  23148.393269   8618.803131   -544.684472
PG13  -7873.749200  19173.208215 -16701.484501    681.148040
PG14 -14218.720314   7095.599398 -21211.425076    516.146298
PG15   4700.586203  17549.532841 -19849.098854    214.999195
PG16   1215.164365 -25391.621646   6500.207928   -156.567571
PG17 -22318.765258  13416.436062  -5268.545058    597.580875
PG18  25734.657224   5681.549250  -4154.805922   -657.714138
PG19 -19668.901161  17202.725966   3075.816733    549.713831
PG20  -1184.074742  22676.601633  13970.624932    369.735121
PG21 -13925.798026 -15132.113733 -16967.655332     99.898335
PG22 -10700.034287  15929.069840 -18087.724556    -70.466749
PG23  15554.107676   3667.129301 -21224.901992    340.275617
PG24  16557.605001  14930.239859 -15185.104254   -484.954209
PG25  15686.071676  12499.978154  17196.126680    499.537726
PG26   7223.800955 -18916.582560  16826.288112     57.297509
PG27   8757.544840 -21088.886311 -13489.057169    -34.514075
PG28  18750.482493  -7284.693496  17332.663368   -443.687046
PG29  18095.363304   2611.423012  19271.126354   -571.690894
PG30 -23746.678050   1724.811437 -11889.543041   -303.638022
PG31   7789.400368 -13350.210630  21389.928824   -223.477379
PG32  20910.479526 -15599.533446  -4146.695577   -587.451253
PR01   1100.989850  17919.869430 -18123.199946    100.831047
PR02  10577.374380   2813.973857 -22997.959519    -25.134327
PR03  14969.023384 -14274.493958 -14840.523645    109.297097
PR04  11240.414021 -22858.328241   1129.334799    258.980756
PR05   1490.695211 -19361.061841  16527.351086    139.056238
PR07 -15038.222587  14708.323521  14505.528698     92.803914
PR08 -10983.240261  23011.526536  -1248.648812     -6.417969
PR09 -17410.075602 -14072.550926 -12287.099631    214.336666
PR11  -1688.190595  14973.192365 -20565.728043      9.454866
PR12  11703.877490  22074.269410  -5148.428719     45.955017
PR14  12278.802499  -1210.634817  22334.801877     27.072209
PR15    581.687165 -16243.107199  19681.231193     74.952821
PR16 -11691.793464 -22042.545631   5400.699127     29.890859
PR17  23868.244367  -4748.759363  -7714.373903    130.202196
PR18  11962.293552  -9665.049155 -20317.009534    166.572382
PR19  -3720.931036 -10285.909147 -23036.783149   -294.631905
PR20 -22654.953102  -4709.263361 -10755.134969   -120.362453
PR21 -24166.037620   4165.844736   6960.489086   -142.232608
PR22 -10989.625881  10011.931870  20759.542202     22.634355
PR24  23097.776224   3650.176470  10244.246690    -75.752411
PR25 -23823.184968   4148.914637   8085.352348    -92.559300
PR26 -11511.958995  22751.268455    356.590231     78.277456
*  2024 10 12 21 15  0.00000000
PG02 -17093.469753 -13261.489401 -15162.289603   -338.448496
PG03 -12611.929498 -21376.359480   9439.726383    568.216834
PG04 -10238.389296 -11126.369299  21847.945558    460.556154
PG05   4609.121587  25434.476085   5775.464318   -189.588256
PG06 -18977.796222   6835.160675  17405.891720    -34.011395
PG07 -25891.817874  -6946.795772    827.887724    -28.274964
PG08   -418.679633 -19182.469927 -18292.126364    382.354910
PG09 -17744.251774   -983.028337  19663.479042    395.984557
PG10  12305.111164  -8824.695886 -21560.097504   -156.348072
PG11  -4267.441521  14493.718503  21876.464536   -743.392922
PG12   9486.968149  24042.966576   5929.293605   -544.686936
PG13  -9394.060261  20082.740211 -14676.649278    681.149665
PG14 -14813.643064   4708.753216 -21486.566986    516.153855
PG15   3323.389115  19156.618144 -18551.112193    215.003166
PG16   1643.568181 -24499.262556   9185.576358   -156.558612
PG17 -21856.186305  12722.252428  -7989.480358    597.569312
PG18  25977.537827   5960.375323  -1307.434936   -657.715407
PG19 -20000.157692  17115.218016    192.847356    549.718032
PG20  -2060.828671  21208.040670  16021.238539    369.734766
PG21 -11870.758735 -14860.212193 -18557.359728     99.897598
PG22 -11174.587824  13760.094194 -19469.094934    -70.469809
PG23  16149.747820   5961.463042 -20258.427901    340.282980
PG24  14790.017758  14808.286546 -17034.096925   -484.953230
PG25  16023.138676  14393.853359  15366.128156    499.537600
PG26   8104.246693 -17035.360783  18383.870675     57.289107
PG27   9901.000631 -21897.840276 -11114.804318    -34.514309
PG28  20534.364611  -6674.370105  15457.191287   -443.698717
PG29  16412.034822   4145.363230  20458.804812   -571.688542
PG30 -24868.312910   1134.824416  -9474.723013   -303.631358
PG31  10139.254133 -12598.645375  20893.918241   -223.476872
PG32  20626.071871 -14947.644603  -6923.086613   -587.447332
PR01    365.023210  19892.048837 -15966.325734    100.832180
PR02   9348.744417   5390.144786 -23076.622068    -25.134523
PR03  14031.913281 -12520.747113 -17158.038816    109.297725
PR04  11051.672024 -22878.713239  -2099.114061    258.982172
PR05   2188.359011 -21125.010268  14109.501771    139.056734
PR07 -14112.756181  13012.482573  16864.281016     92.804557
PR08 -10815.628772  23048.014149   1968.165436     -6.418028
PR09 -18289.578414 -15091.564365  -9493.255472    214.338544
PR11  -3174.244573  12817.438571 -21809.773561      9.454047
PR12  11328.278445  21325.758392  -8214.336858     45.955427
PR14  13889.734553    948.492696  21381.248151     27.072243
PR15   1990.526600 -14160.310019  21144.234809     74.952457
PR16 -11315.824381 -21261.628843   8464.742678     29.891091
PR17  24611.945893  -4995.875058  -4603.127644    130.205192
PR18  14355.960754  -9943.019355 -18554.929740    166.573979
PR19   -858.817545 -10382.670888 -23277.642704   -294.633155
PR20 -21147.352775  -4576.972323 -13520.261440   -120.363320
PR21 -24815.214022   4406.711581   3810.380917   -142.235525
PR22 -13439.744464  10203.378424  19161.258247     22.624589
PR24  21660.678174   3639.275280  13016.090549    -75.753787
PR25 -24623.098339   4323.696095   5005.366156    -92.555851
PR26 -11262.908199  22600.852911   3566.494937     78.303297
EOF
